{
    "links": {
        "self": "http://www.neowsapp.com/rest/v1/neo/3591724?api_key=iIulBulltgU6a56xZRHN4H3l9WmuAYTsLGpBGhQ2"
    },
    "id": "3591724",
    "neo_reference_id": "3591724",
    "name": "(2011 YL28)",
    "designation": "2011 YL28",
    "nasa_jpl_url": "http://ssd.jpl.nasa.gov/sbdb.cgi?sstr=3591724",
    "absolute_magnitude_h": 25.0,
    "estimated_diameter": {
        "kilometers": {
            "estimated_diameter_min": 0.02658,
            "estimated_diameter_max": 0.0594346868
        },
        "meters": {
            "estimated_diameter_min": 26.58,
            "estimated_diameter_max": 59.4346868419
        },
        "miles": {
            "estimated_diameter_min": 0.0165160412,
            "estimated_diameter_max": 0.0369309908
        },
        "feet": {
            "estimated_diameter_min": 87.2047272,
            "estimated_diameter_max": 194.9956979785
        }
    },
    "is_potentially_hazardous_asteroid": false,
    "close_approach_data": [
        {
            "close_approach_date": "2001-12-05",
            "close_approach_date_full": "2001-Dec-05 05:45",
            "epoch_date_close_approach": 1007531100000,
            "relative_velocity": {
                "kilometers_per_second": "19.5638878006",
                "kilometers_per_hour": "70429.9960822129",
                "miles_per_hour": "43762.460621195"
            },
            "miss_distance": {
                "astronomical": "0.3927786723",
                "lunar": "152.7909035247",
                "kilometers": "58758852.757508001",
                "miles": "36511058.0632563738"
            },
            "orbiting_body": "Earth"
        },
        {
            "close_approach_date": "2006-12-17",
            "close_approach_date_full": "2006-Dec-17 04:16",
            "epoch_date_close_approach": 1166328960000,
            "relative_velocity": {
                "kilometers_per_second": "13.3142437989",
                "kilometers_per_hour": "47931.2776761973",
                "miles_per_hour": "29782.6319538572"
            },
            "miss_distance": {
                "astronomical": "0.183192451",
                "lunar": "71.261863439",
                "kilometers": "27405200.46967937",
                "miles": "17028801.935820506"
            },
            "orbiting_body": "Earth"
        },
        {
            "close_approach_date": "2012-01-03",
            "close_approach_date_full": "2012-Jan-03 18:18",
            "epoch_date_close_approach": 1325614680000,
            "relative_velocity": {
                "kilometers_per_second": "8.221249593",
                "kilometers_per_hour": "29596.4985347947",
                "miles_per_hour": "18390.1132145784"
            },
            "miss_distance": {
                "astronomical": "0.0077454843",
                "lunar": "3.0129933927",
                "kilometers": "1158707.953398441",
                "miles": "719987.7359668458"
            },
            "orbiting_body": "Moon"
        },
        {
            "close_approach_date": "2012-01-04",
            "close_approach_date_full": "2012-Jan-04 08:22",
            "epoch_date_close_approach": 1325665320000,
            "relative_velocity": {
                "kilometers_per_second": "7.6445060608",
                "kilometers_per_hour": "27520.2218190455",
                "miles_per_hour": "17099.9956075064"
            },
            "miss_distance": {
                "astronomical": "0.0095007376",
                "lunar": "3.6957869264",
                "kilometers": "1421290.108388912",
                "miles": "883148.7212025056"
            },
            "orbiting_body": "Earth"
        },
        {
            "close_approach_date": "2017-04-19",
            "close_approach_date_full": "2017-Apr-19 08:12",
            "epoch_date_close_approach": 1492589520000,
            "relative_velocity": {
                "kilometers_per_second": "11.6836320012",
                "kilometers_per_hour": "42061.0752044633",
                "miles_per_hour": "26135.1164235733"
            },
            "miss_distance": {
                "astronomical": "0.1565048664",
                "lunar": "60.8803930296",
                "kilometers": "23412794.658074568",
                "miles": "14548035.9991343184"
            },
            "orbiting_body": "Earth"
        }
    ],
    "orbital_data": {
        "orbit_id": "9",
        "orbit_determination_date": "2017-04-06 08:51:39",
        "first_observation_date": "2011-12-28",
        "last_observation_date": "2012-01-03",
        "data_arc_in_days": 6,
        "observations_used": 46,
        "orbit_uncertainty": "7",
        "minimum_orbit_intersection": ".00403648",
        "jupiter_tisserand_invariant": "4.639",
        "epoch_osculation": "2459000.5",
        "eccentricity": ".3580570851310212",
        "semi_major_axis": "1.419252500394739",
        "inclination": "4.420900805162559",
        "ascending_node_longitude": "98.83624823432186",
        "orbital_period": "617.5724714570572",
        "perihelion_distance": ".9110790870384852",
        "perihelion_argument": "47.01658011209881",
        "aphelion_distance": "1.927425913750993",
        "perihelion_time": "2459051.994342140726",
        "mean_anomaly": "329.9825299419126",
        "mean_motion": ".5829275374769235",
        "equinox": "J2000",
        "orbit_class": {
            "orbit_class_type": "APO",
            "orbit_class_description": "Near-Earth asteroid orbits which cross the Earth’s orbit similar to that of 1862 Apollo",
            "orbit_class_range": "a (semi-major axis) > 1.0 AU; q (perihelion) < 1.017 AU"
        }
    },
    "is_sentry_object": false
}